     3.02           N: GNSS NAV DATA    G: GPS              RINEX VERSION / TYPE
Skytraq FW host     Skytraq Corp.       20250103 120309 UTC PGM / RUN BY / DATE
Skytraq FW kernel 1.100.38                                  COMMENT
Stq test version                                            COMMENT
GPSA    .2794e-07   .2235e-07  -.1192e-06   .5960e-07       IONOSPHERIC CORR
GPSB    .1516e+06  -.1966e+06  -.6554e+05   .3277e+06       IONOSPHERIC CORR
GPUT   .2793967724E-08  .355271368E-14  61440 1580          TIME SYSTEM CORR
    18                                                      LEAP SECONDS
                                                            END OF HEADER
G27 2005  5 20  6  0  0-3.352481871843e-05 4.547473508865e-13 0.000000000000e+00
     6.400000000000e+01 2.018750000000e+01 4.511973656099e-09-7.876001740229e-02
     1.126900315285e-06 1.313032570761e-02 1.024641096592e-05 5.153685268402e+03
     4.536000000000e+05 5.215406417847e-08-2.921136696589e+00 1.657754182816e-07
     9.592281562972e-01 1.841562500000e+02 8.054556085162e-01-8.116766667340e-09
    -4.853773607725e-10 1.000000000000e+00 1.323000000000e+03 0.000000000000e+00
     2.400000000000e+00 0.000000000000e+00 1.862645149231e-09 6.400000000000e+01
     4.518660000000e+05 4.000000000000e+00
G31 2005  5 20  6  0  0-2.186922356486e-04 7.958078640513e-13 0.000000000000e+00
     9.100000000000e+01 2.593750000000e+00 4.641264755878e-09 2.309029111622e+00
    -7.078051567077e-08 1.069692673627e-02 1.071952283382e-05 5.153606544495e+03
     4.536000000000e+05-7.450580596924e-08 1.300019131678e+00-1.247972249985e-07
     9.539722222579e-01 1.704375000000e+02 7.913216562147e-01-7.888185717454e-09
     4.925205154564e-10 1.000000000000e+00 1.323000000000e+03 0.000000000000e+00
     2.400000000000e+00 0.000000000000e+00-1.350417733192e-08 9.100000000000e+01
     4.518660000000e+05 4.000000000000e+00
G16 2005  5 20  6  0  0-8.728029206395e-05 9.436007530894e-12 0.000000000000e+00
     1.080000000000e+02 7.187500000000e-01 4.900918428638e-09 8.455179214781e-01
     2.048909664154e-07 1.446429733187e-02 5.930662155151e-06 5.153662107468e+03
     4.536000000000e+05-2.160668373108e-07 2.411765311820e+00 5.587935447693e-08
     9.602176243468e-01 2.678437500000e+02 8.659203139025e-01-8.332489938794e-09
    -2.971552348511e-10 1.000000000000e+00 1.323000000000e+03 0.000000000000e+00
     2.400000000000e+00 0.000000000000e+00-1.071020960808e-08 1.080000000000e+02
     4.519860000000e+05 4.000000000000e+00
G27 2005  5 20  8  0  0-3.352155908942e-05 4.547473508865e-13 0.000000000000e+00
     7.700000000000e+01 2.443750000000e+01 4.430541692702e-09 9.713789987943e-01
     1.287087798119e-06 1.313126285095e-02 1.049414277077e-05 5.153687276840e+03
     4.608000000000e+05-9.126961231231e-08-2.921194236082e+00 9.685754776001e-08
     9.592243307665e-01 1.784375000000e+02 8.054890361944e-01-8.059264272134e-09
    -6.057395171965e-10 1.000000000000e+00 1.323000000000e+03 0.000000000000e+00
     2.400000000000e+00 0.000000000000e+00 1.862645149231e-09 7.700000000000e+01
     4.536360000000e+05 4.000000000000e+00
G16 2005  5 20  8  0  0-8.721183985472e-05 9.436007530894e-12 0.000000000000e+00
     1.090000000000e+02-4.750000000000e+00 4.895203904891e-09 1.895655097324e+00
    -4.451721906662e-07 1.446438184939e-02 6.021931767463e-06 5.153663576126e+03
     4.608000000000e+05-2.440065145492e-07 2.411705022040e+00-1.788139343262e-07
     9.602160136740e-01 2.676250000000e+02 8.659739400905e-01-8.198198630736e-09
    -2.335811581642e-10 1.000000000000e+00 1.323000000000e+03 0.000000000000e+00
     3.400000000000e+00 0.000000000000e+00-1.071020960808e-08 1.090000000000e+02
     4.537260000000e+05 4.000000000000e+00
G31 2005  5 20  8  0  0-2.186861820519e-04 7.958078640513e-13 0.000000000000e+00
     1.070000000000e+02 1.534375000000e+01 4.615549399016e-09-2.923969135668e+00
     6.854534149170e-07 1.069511100650e-02 1.030042767525e-05 5.153609960556e+03
     4.608000000000e+05 1.676380634308e-08 1.299962522600e+00-1.173466444015e-07
     9.539758971081e-01 1.756250000000e+02 7.913565380334e-01-7.861756045124e-09
     5.043067206848e-10 1.000000000000e+00 1.323000000000e+03 0.000000000000e+00
     2.400000000000e+00 0.000000000000e+00-1.350417733192e-08 1.070000000000e+02
     4.537860000000e+05 4.000000000000e+00
G09 2005  5 20  7 59 44 5.136472173035e-04 1.546140993014e-11 0.000000000000e+00
     2.200000000000e+01-1.330312500000e+02 4.418755487474e-09 1.452321929552e+00
    -7.009133696556e-06 3.196036675945e-03 8.510425686836e-06 5.153794422150e+03
     4.607840000000e+05 5.029141902923e-08 2.050376869741e-01-5.215406417847e-08
     9.607970291442e-01 2.117812500000e+02 2.032795246699e+00-8.054978379324e-09
    -2.407243128481e-10 1.000000000000e+00 1.323000000000e+03 0.000000000000e+00
     2.400000000000e+00 0.000000000000e+00 9.313225746155e-10 2.200000000000e+01
     4.537860000000e+05 4.000000000000e+00
G21 2005  5 20  8  0  0 9.977910667658e-05 1.591615728103e-12 0.000000000000e+00
     4.700000000000e+01 1.065625000000e+02 4.548760902721e-09 7.156172475079e-01
     5.390495061874e-06 2.587549178861e-02 7.770955562591e-06 5.153622703552e+03
     4.608000000000e+05 5.736947059631e-07-1.957841815284e+00-2.011656761169e-07
     9.606789775069e-01 2.264062500000e+02-4.669697604677e-01-8.298917111780e-09
     1.928651764659e-10 1.000000000000e+00 1.323000000000e+03 0.000000000000e+00
     2.400000000000e+00 0.000000000000e+00-1.024454832077e-08 4.700000000000e+01
     4.570260000000e+05 4.000000000000e+00
G07 2005  5 20  7 59 44-1.398660242558e-05 6.821210263297e-13 0.000000000000e+00
     2.000000000000e+00 2.187500000000e-01 4.560904265684e-09-1.879137410713e+00
    -7.450580596924e-08 1.890961779281e-02 1.014582812786e-05 5.153761220932e+03
     4.607840000000e+05 3.520399332046e-07 1.277521370967e+00-1.005828380585e-07
     9.500821153508e-01 1.736875000000e+02-2.085779532610e+00-7.668890868658e-09
     5.500229106619e-10 1.000000000000e+00 1.323000000000e+03 0.000000000000e+00
     2.400000000000e+00 0.000000000000e+00-1.071020960808e-08 2.000000000000e+00
     4.579860000000e+05 4.000000000000e+00
G02 2005  5 20  8  0  0-2.768905833364e-04 9.094947017729e-12 0.000000000000e+00
     7.700000000000e+01 1.107500000000e+02 4.350895517976e-09 1.012466442823e+00
     5.461275577545e-06 1.654775254428e-02 8.616596460342e-06 5.153680360794e+03
     4.608000000000e+05 1.434236764908e-07-1.949333915296e+00-3.911554813385e-07
     9.664345302545e-01 2.155312500000e+02-1.062200004802e+00-8.139981920063e-09
     2.235807416067e-10 1.000000000000e+00 1.323000000000e+03 0.000000000000e+00
     2.400000000000e+00 0.000000000000e+00-1.769512891769e-08 7.700000000000e+01
     4.579860000000e+05 4.000000000000e+00
G01 2005  5 20  8  0  0 1.588882878423e-05 3.512923285598e-11 0.000000000000e+00
     6.900000000000e+01 1.241562500000e+02 4.513402287036e-09 1.066259507383e+00
     6.407499313354e-06 2.135252580047e-04 7.076188921928e-06 5.153753177643e+03
     4.608000000000e+05 2.607703208923e-08-1.784567593740e+00-1.676380634308e-08
     9.596970303191e-01 2.431875000000e+02-1.270627998573e+00-8.197127157534e-09
     3.003696544589e-10 1.000000000000e+00 1.323000000000e+03 0.000000000000e+00
     2.400000000000e+00 6.300000000000e+01-1.396983861923e-09 6.900000000000e+01
     4.587960000000e+05 4.000000000000e+00
G07 2005  5 20  9 59 44-1.398194581270e-05 6.821210263297e-13 0.000000000000e+00
     5.000000000000e+00 7.718750000000e+00 4.884489172865e-09-8.290435416312e-01
     5.010515451431e-07 1.890987134539e-02 1.039728522301e-05 5.153760055542e+03
     4.679840000000e+05-5.029141902923e-08 1.277465259281e+00 4.414469003677e-07
     9.500825849475e-01 1.740937500000e+02-2.085744579108e+00-8.338918778010e-09
     3.828730910582e-10 1.000000000000e+00 1.323000000000e+03 0.000000000000e+00
     2.400000000000e+00 0.000000000000e+00-1.071020960808e-08 5.000000000000e+00
     4.608060000000e+05 4.000000000000e+00
G02 2005  5 20 10  0  0-2.768253907561e-04 9.094947017729e-12 0.000000000000e+00
     7.800000000000e+01 1.255937500000e+02 4.111242678331e-09 2.062480350265e+00
     6.398186087608e-06 1.654792902991e-02 7.808208465576e-06 5.153685348511e+03
     4.680000000000e+05 2.421438694000e-07-1.949389694900e+00 6.705522537231e-08
     9.664371839879e-01 2.271250000000e+02-1.062041585404e+00-7.739608100029e-09
     6.607418082627e-11 1.000000000000e+00 1.323000000000e+03 0.000000000000e+00
     2.400000000000e+00 0.000000000000e+00-1.769512891769e-08 7.800000000000e+01
     4.608660000000e+05 4.000000000000e+00
G01 2005  5 20 10  0  0 1.614121720195e-05 3.501554601826e-11 0.000000000000e+00
     7.000000000000e+01 1.219687500000e+02 4.445185159804e-09 2.112370590771e+00
     6.258487701416e-06 2.139959251508e-04 6.679445505142e-06 5.153754781723e+03
     4.680000000000e+05 3.911554813385e-08-1.784626382566e+00 2.607703208923e-08
     9.596993197859e-01 2.524375000000e+02-1.266608224459e+00-8.157125491304e-09
     2.860833450910e-10 1.000000000000e+00 1.323000000000e+03 0.000000000000e+00
     3.400000000000e+00 6.300000000000e+01-1.396983861923e-09 7.000000000000e+01
     4.609260000000e+05 4.000000000000e+00
G21 2005  5 20 10  0  0 9.979074820876e-05 1.591615728103e-12 0.000000000000e+00
     4.900000000000e+01 1.282812500000e+02 4.241962409047e-09 1.765709849703e+00
     6.675720214844e-06 2.587636781391e-02 7.797032594681e-06 5.153628746033e+03
     4.680000000000e+05 1.993030309677e-07-1.957897466151e+00 2.998858690262e-07
     9.606805720876e-01 2.237812500000e+02-4.668542981954e-01-7.853541417237e-09
    -1.314340461842e-10 1.000000000000e+00 1.323000000000e+03 0.000000000000e+00
     2.400000000000e+00 0.000000000000e+00-1.024454832077e-08 4.900000000000e+01
     4.610460000000e+05 4.000000000000e+00
G30 2005  5 20 10  0  0-2.473881468177e-04 8.299139153678e-12 0.000000000000e+00
     7.000000000000e+00 4.656250000000e+00 5.062353724495e-09-1.001979353650e+00
     1.713633537292e-07 7.247027358971e-03 1.041032373905e-05 5.153754154205e+03
     4.680000000000e+05 1.918524503708e-07 1.274762054385e+00 1.210719347000e-07
     9.352565304914e-01 1.628750000000e+02-2.453676969746e+00-8.187841056445e-09
     4.203746531488e-10 1.000000000000e+00 1.323000000000e+03 0.000000000000e+00
     2.400000000000e+00 0.000000000000e+00 3.725290298462e-09 7.000000000000e+00
     4.632060000000e+05 4.000000000000e+00
